#dP2024  6 11  6  0  0.00000000      96 __u+U IGS20 EXT  IAC
## 2318 194400.00000000   900.00000000 60472 0.2500000000000
+   54   G02G03G04G05G06G07G08G09G10G11G12G13G14G15G16G17G18
+        G19G20G21G22G23G24G25G26G27G28G29G30G31G32R01R02R03
+        R04R05R07R08R09R11R12R13R14R15R16R17R18R19R20R21R22
+        R24R25R26  0  0  0  0  0  0  0  0  0  0  0  0  0  0
+          0  0  0  0  0  0  0  0  0  0  0  0  0  0  0  0  0
++         8  8  8  9  8  8  8  9  9  8  8  9  9  9  8  8  8
++         7  8  8  8 10  9  8  9  8 10  7  9  8  8  8  8  8
++         8  9  8  9  9  8  8  9  9  9  8  9  8  8  8  8  8
++         9  8  9  0  0  0  0  0  0  0  0  0  0  0  0  0  0
++         0  0  0  0  0  0  0  0  0  0  0  0  0  0  0  0  0
%c M  cc GPS ccc cccc cccc cccc cccc ccccc ccccc ccccc ccccc
%c cc cc ccc ccc cccc cccc cccc cccc ccccc ccccc ccccc ccccc
%f  0.0000000  0.000000000  0.00000000000  0.000000000000000
%f  0.0000000  0.000000000  0.00000000000  0.000000000000000
%i    0    0    0    0      0      0      0      0         0
%i    0    0    0    0      0      0      0      0         0
/* IAC                                ULTRA-RAPID PREDICTION
/* S/V CLOCKS ARE ALIGNED TO GNSS TIME                      
/* G:C1WC2W R:C1PC2P E:C1XC5X C:C2IC6I J:C1CC2S             
/* PCV:IGS20_2317 OL/AL:FES2004  NONE     YN ORB:CoN CLK:CoN
*  2024 06 11 16 30  0.00000000
PG02  22271.018327  14101.187220  -3890.376062   -419.616897
PG03  12310.489474  13602.691297  19094.330845    408.638319
PG04  18325.462047   5192.176895  18585.311485    380.997118
PG05  -5925.531845 -24700.503726  -7785.339896   -175.960640
PG06   9381.975358 -11318.829112  22184.994281    224.215838
PG07  23059.333049   3480.617719 -12611.278229    -95.991040
PG08   9229.031867  12446.319633 -21697.030027    224.773825
PG09  23961.059543  -5968.994097   9768.838426    230.830610
PG10 -10578.063623  18658.504127 -15241.253386    -40.713619
PG11  -4338.833841 -18469.328037  18634.091770   -683.232016
PG12 -10865.003390 -16292.366299  17685.140838   -513.226289
PG13    658.429528 -15892.633545 -21440.698475    657.195686
PG14  13236.156896 -14980.000012 -17346.255670    422.957596
PG15 -10781.481357 -11869.314362 -21682.633697    169.021045
PG16    951.044726  25807.275502  -5411.470877   -267.109671
PG17  22560.553098 -13707.714299   4053.346178    696.001102
PG18 -22387.972805  -2812.122417 -14158.333983   -623.566797
PG19  17113.451094 -16032.338111  11901.165996    494.975790
PG20  -1863.803983 -26401.923482   3105.553235    373.950011
PG21  19502.149650  16363.510866  -8771.376961    116.100365
PG22  10091.579528 -22020.918318 -10805.045037    -25.948875
PG23 -14282.406696   6645.060929 -21327.299043    247.837306
PG24 -20749.680192 -15652.222765  -6859.480095   -476.988830
PG25 -14913.164737  -5750.001051  20915.538532    497.192445
PG26  -5110.167799  24302.735501   8735.495174    138.643966
PG27  -2921.521389  17514.641426 -19908.301036    -27.836879
PG28 -11648.966336  10580.715418  21385.591196   -284.301599
PG29 -23593.935070   1560.419290  12163.354700   -594.677967
PG30  16799.978536  -6554.091554 -19431.077699   -375.920429
PG31   -907.524071  16601.321238  20411.803460   -227.447601
PG32 -20430.220022  15921.365380   5594.706740   -616.524076
PR01  -1520.693769  16684.417962  19244.712078     88.081251
PR02  11105.468248   3300.750094  22778.322156    -23.246115
PR03  18178.033738 -12017.738360  13353.169908    101.870318
PR04  15315.140044 -20168.779777  -3069.483054    240.618068
PR05   4274.453307 -17679.184452 -17880.281388    132.926011
PR07 -18213.773308  12572.248031 -12599.650165     84.350177
PR08 -14940.047021  20373.555659   3467.916809     -4.858570
PR09 -14014.689140 -15911.909616  14138.048880    191.652571
PR11  -3735.200010  16117.557486  19436.119322     21.737167
PR12   7470.675840  24193.122607   3079.595174     41.191238
PR13  13244.070264  18189.613760 -12025.144739    -48.255188
PR14  11571.536285   -649.569574 -22708.109674     26.558243
PR15   2982.548784 -17367.574615 -18414.616883     78.908341
PR16  -7509.619584 -24136.828084  -3251.829546     26.393291
PR17  23611.902189   -219.404034   9595.316698     94.927282
PR18  11998.225473  -7482.988772  21250.293289    146.508321
PR19  -3680.490560 -11184.857445  22621.668328   -279.959661
PR20 -22064.184367  -9092.960380   8958.214819   -114.311967
PR21 -23749.386732   -163.020950  -9350.907475   -108.410895
PR22 -11078.623348   8005.542342 -21512.673437    103.910043
PR24  22697.791845   8085.222108  -8335.628309    -59.443238
PR25 -23562.041229   -451.523591  -9789.209161    -46.563612
PR26 -15445.310881  20214.069637   2077.814235     -6.533744
*  2024 06 11 16 45  0.00000000
PG02  21587.963655  14024.618869  -6656.808119   -419.610588
PG03  12221.690979  15716.097719  17484.724383    408.654534
PG04  16449.369900   6336.515182  19926.138614    381.004450
PG05  -5748.889606 -25424.638646  -5028.474048   -175.961769
PG06  11526.987922 -10044.937759  21792.403627    224.196962
PG07  24138.348083   4348.087092 -10235.666602    -95.980952
PG08   7144.978694  13753.519966 -21656.220117    224.790436
PG09  23004.034366  -5107.249298  12223.553722    230.843726
PG10 -10743.679699  16760.971783 -17207.093227    -40.720837
PG11  -2417.062252 -17390.334408  19969.340899   -683.239389
PG12 -10586.478285 -18246.880980  15886.704788   -513.229146
PG13   2869.906903 -16727.875937 -20577.407290    657.198090
PG14  13377.353295 -12887.609052 -18868.580295    422.965813
PG15  -8931.322873 -13369.856771 -21632.173890    169.024843
PG16    640.033359  26210.552978  -2575.796895   -267.100306
PG17  22885.007110 -13630.871093   1211.553425    695.996342
PG18 -23581.368192  -3703.278453 -11845.281736   -623.571283
PG19  18350.849986 -16338.626199   9378.984864    494.980648
PG20  -1518.071553 -25952.785857   5877.885214    373.949664
PG21  18364.137311  16032.817346 -11255.287112    116.098194
PG22  10180.139430 -20587.758502 -13168.534282    -25.953373
PG23 -14420.858741   4174.422222 -21870.963509    247.845579
PG24 -19840.509250 -15545.012717  -9429.152607   -476.991198
PG25 -14906.843536  -8167.460170  20136.580743    497.192934
PG26  -5543.516706  23159.586073  11219.118395    138.638423
PG27  -4838.748175  18511.580884 -18529.035643    -27.838133
PG28 -13754.252559   9409.169550  20671.093434   -284.316826
PG29 -22303.445610    731.229302  14441.441132   -594.676424
PG30  18624.203368  -5356.662174 -18124.826736   -375.914897
PG31  -3042.747447  15435.908084  21135.063812   -227.447402
PG32 -20956.688203  15935.589053   2778.186985   -616.523098
PR01  -2783.101359  18553.349911  17295.066277     88.082172
PR02   9329.089308   5494.504641  23144.313693    -23.246435
PR03  16972.988464 -10685.510504  15843.560946    101.870855
PR04  15289.094433 -20424.917427    150.647383    240.619785
PR05   5473.299838 -19374.898475 -15662.057270    132.926456
PR07 -17052.426892  11293.100574 -15169.639762     84.350775
PR08 -14950.062283  20647.975675    256.830280     -4.859036
PR09 -14720.603198 -17327.255506  11500.326457    191.654396
PR11  -4632.501714  13794.365072  20969.419763     21.735990
PR12   7373.540024  23616.661043   6218.802297     41.191586
PR13  13861.926445  19347.301697  -9184.554934    -48.255541
PR14  12667.712692   1887.831660 -22046.699879     26.558197
PR15   3825.349452 -15136.424682 -20145.172901     78.907932
PR16  -7415.424286 -23528.181060  -6397.748052     26.393550
PR17  24625.744726   -248.907998   6564.197470     94.930330
PR18  14511.256809  -7184.702413  19734.834667    146.509872
PR19   -905.632931 -10619.959504  23167.872727   -279.961013
PR20 -20836.375651  -8658.194364  11862.177933   -114.312322
PR21 -24733.081248   -121.072789  -6305.539301   -108.413801
PR22 -13623.657977   7598.774800 -20156.877254    103.906311
PR24  21519.950364   7773.945475 -11245.845423    -59.444645
PR25 -24593.129535   -502.697418  -6794.559312    -46.592060
PR26 -15347.491989  20359.264348  -1139.847343     -6.533121
EOF
